OBJECT_NAME,OBJECT_ID,EPOCH,MEAN_MOTION,ECCENTRICITY,INCLINATION,RA_OF_ASC_NODE,ARG_OF_PERICENTER,MEAN_ANOMALY,EPHEMERIS_TYPE,CLASSIFICATION_TYPE,NORAD_CAT_ID,ELEMENT_SET_NO,REV_AT_EPOCH,BSTAR,MEAN_MOTION_DOT,MEAN_MOTION_DDOT
STARLINK-31205,2024-038Z,2025-07-26T00:57:47.207808,15.27571718,.0001694,43.0032,223.6923,271.9628,88.1030,0,U,59046,999,8013,-.19027E-5,-.315E-5,0
STARLINK-31265,2024-041A,2025-07-26T04:56:00.609504,15.27584148,.0000701,42.9977,149.7733,274.8072,85.2699,0,U,59074,999,7964,.3165E-4,.609E-5,0
STARLINK-31276,2024-041B,2025-07-26T04:09:45.052704,15.27585276,.0001301,43.0016,149.5363,273.7188,86.3515,0,U,59075,999,7967,.12027E-4,.69E-6,0
STARLINK-31259,2024-041C,2025-07-26T04:15:18.148896,15.27577899,.0001623,43.0017,149.5643,262.9717,97.0950,0,U,59076,999,7964,.99847E-5,.13E-6,0
STARLINK-31281,2024-041D,2025-07-25T04:48:30.899232,15.27575453,.0001266,43.0015,155.1303,263.8046,96.2662,0,U,59077,999,7954,.14562E-4,.139E-5,0
STARLINK-31274,2024-041E,2025-07-26T05:03:24.933600,15.27576579,.0000784,42.9959,149.8146,260.0350,100.0413,0,U,59078,999,7964,.62016E-5,-.91E-6,0
STARLINK-31257,2024-041F,2025-07-26T04:39:21.538656,15.27582772,.0001073,42.9993,149.6848,265.3239,94.7490,0,U,59079,999,7964,-.32915E-4,-.1168E-4,0
STARLINK-31299,2024-041G,2025-07-25T06:44:09.149280,15.27570450,.0000888,42.9997,57.1512,295.2047,64.8712,0,U,59080,999,8065,-.4302E-4,-.1445E-4,0
STARLINK-31292,2024-041H,2025-07-26T04:26:24.057888,15.27575877,.0001169,43.0013,149.6192,265.1231,94.9487,0,U,59081,999,7964,.70664E-4,.1683E-4,0
STARLINK-31286,2024-041J,2025-07-26T04:31:57.678528,15.27573319,.0000749,42.9992,149.6448,272.3088,87.7678,0,U,59082,999,7964,.64326E-4,.1508E-4,0
STARLINK-31252,2024-041K,2025-07-26T01:14:49.425216,15.27606227,.0001564,43.0013,67.4482,281.9476,78.1200,0,U,59083,999,8061,.96602E-3,.26437E-3,0
STARLINK-31261,2024-041L,2025-07-26T05:12:39.688128,15.27590612,.0001146,43.0005,149.8635,262.0871,97.9850,0,U,59084,999,7969,-.90954E-4,-.2765E-4,0
STARLINK-31290,2024-041M,2025-07-26T04:14:23.885376,15.27591583,.0001167,43.0007,135.7154,275.1531,84.9187,0,U,59085,999,7985,.65967E-3,.17941E-3,0
STARLINK-31279,2024-041N,2025-07-26T00:50:32.914752,15.27578036,.0001083,43.0014,151.0790,251.9506,108.1228,0,U,59086,999,7966,.25695E-4,.445E-5,0
STARLINK-31266,2024-041P,2025-07-26T04:37:30.633888,15.27579287,.0000598,43.0015,149.6736,265.2740,94.8044,0,U,59087,999,7969,-.53964E-5,-.41E-5,0
STARLINK-31313,2024-041Q,2025-07-26T04:41:12.435648,15.27583130,.0001052,43.0010,149.6921,256.4072,103.6663,0,U,59088,999,7964,.18264E-4,.241E-5,0
STARLINK-31307,2024-041R,2025-07-26T04:35:39.528672,15.27576548,.0001307,43.0002,149.6643,261.4184,98.6520,0,U,59089,999,7969,.74931E-4,.18E-4,0
STARLINK-31316,2024-041S,2025-07-25T22:23:59.273088,15.27570935,.0001261,42.9995,104.4801,269.7137,90.3570,0,U,59090,999,8009,-.42162E-4,-.1422E-4,0
STARLINK-31310,2024-041U,2025-07-26T04:08:07.375776,15.27564611,.0001647,43.0032,150.3800,253.4496,106.6174,0,U,59092,999,7963,.30905E-3,.8248E-4,0
STARLINK-31343,2024-041V,2025-07-26T02:15:27.120960,15.27583973,.0000836,43.0008,150.6581,270.2985,89.7771,0,U,59093,999,7966,-.46029E-4,-.1528E-4,0
STARLINK-31295,2024-041X,2025-07-26T04:52:18.602976,15.27582903,.0000696,42.9988,149.7482,281.7015,78.3759,0,U,59095,999,7963,.99654E-5,.12E-6,0
STARLINK-31291,2024-041Y,2025-07-26T04:48:36.645696,15.27580752,.0001188,43.0013,149.7264,270.5577,89.5138,0,U,59096,999,7962,-.4143E-4,-.1402E-4,0
STARLINK-31312,2024-044A,2025-07-25T10:13:05.694240,15.27571554,.000179,42.9993,259.7915,278.0994,81.9654,0,U,59152,999,7942,.13597E-3,.348E-4,0
STARLINK-31308,2024-044B,2025-07-26T04:03:18.435168,15.27570678,.0000855,42.9955,259.4560,250.3962,109.6797,0,U,59153,999,7950,.20514E-3,.5386E-4,0
STARLINK-31270,2024-044C,2025-07-25T08:02:05.388576,15.27566159,.0000693,43.0000,311.0929,301.4355,58.6429,0,U,59154,999,7882,-.73744E-4,-.229E-4,0
STARLINK-31341,2024-044D,2025-07-25T00:46:33.511584,15.25901541,.0001547,43.0019,314.8528,259.3277,100.7400,0,U,59155,999,7872,.45627E-5,-.138E-5,0
STARLINK-31338,2024-044E,2025-07-25T07:00:20.156544,15.25875126,.0001415,43.0001,313.3606,287.1600,72.9096,0,U,59156,999,7876,-.72115E-3,-.19053E-3,0
STARLINK-31334,2024-044F,2025-07-25T17:56:53.241216,15.25910689,.0002399,43.0054,310.7624,283.4342,76.6241,0,U,59157,999,7865,.49073E-4,.1026E-4,0
STARLINK-31297,2024-044G,2025-07-25T17:32:39.045408,15.27506418,.0001511,43.0046,308.9042,275.3365,84.7314,0,U,59158,999,7888,-.28421E-3,-.8057E-4,0
STARLINK-31182,2024-044H,2025-07-25T08:48:07.964640,15.27573366,.0001196,43.0008,310.4759,244.9769,115.0959,0,U,59159,999,7883,-.42004E-4,-.1417E-4,0
STARLINK-31327,2024-044J,2025-07-25T08:11:19.871808,15.27578628,.0001344,43.0026,311.1383,278.4238,81.6462,0,U,59160,999,7882,-.69102E-4,-.2163E-4,0
STARLINK-31256,2024-044K,2025-07-25T07:19:31.452096,15.27581310,.0001113,43.0006,310.8731,271.1059,88.9665,0,U,59161,999,7882,-.81753E-4,-.2511E-4,0
STARLINK-31272,2024-044L,2025-07-25T07:25:04.518048,15.27577734,.000117,43.0025,310.9020,279.1946,80.8773,0,U,59162,999,7879,-.5302E-4,-.1721E-4,0
STARLINK-31278,2024-044M,2025-07-25T18:29:42.145152,15.27583895,.0004402,43.0001,308.3460,243.5186,116.5214,0,U,59163,999,7886,.10174E-2,.27849E-3,0
STARLINK-31309,2024-044N,2025-07-25T18:35:16.069056,15.27571656,.0001228,43.0015,308.3685,261.8930,98.1783,0,U,59164,999,7889,-.16173E-4,-.707E-5,0
STARLINK-31325,2024-044P,2025-07-25T07:39:52.888032,15.27568740,.0000842,43.0005,310.9757,227.2880,132.7901,0,U,59165,999,7857,-.3889E-4,-.1331E-4,0
STARLINK-31342,2024-044Q,2025-07-25T17:10:22.325952,15.27589472,.0001135,43.0013,308.7881,258.7309,101.3415,0,U,59166,999,7888,.15034E-3,.3878E-4,0
STARLINK-31298,2024-044R,2025-07-25T07:50:58.538688,15.27579425,.0001155,43.0020,311.0322,271.5209,88.5510,0,U,59167,999,7879,-.98728E-4,-.2978E-4,0
STARLINK-31322,2024-044S,2025-07-25T10:02:09.071520,15.27568164,.0001698,43.0034,310.8519,274.7905,85.2753,0,U,59168,999,7883,-.12777E-4,-.614E-5,0
STARLINK-31329,2024-044T,2025-07-25T08:16:52.941216,15.27568739,.0001315,43.0028,311.1641,256.3855,103.6851,0,U,59169,999,7879,-.69387E-4,-.217E-4,0
STARLINK-31340,2024-044U,2025-07-25T11:25:03.012384,15.27570409,.0001191,43.0007,270.6576,265.3785,94.6930,0,U,59170,999,7927,-.12357E-4,-.602E-5,0
STARLINK-31344,2024-044V,2025-07-25T06:48:17.024832,15.27570071,.0000395,43.0027,311.5606,272.0175,88.0632,0,U,59171,999,7881,-.29809E-4,-.1082E-4,0
STARLINK-31348,2024-044W,2025-07-26T04:05:10.201344,15.27615355,.0001103,42.9973,259.4688,268.2772,91.7954,0,U,59172,999,7923,.11176E-2,.30653E-3,0
STARLINK-31289,2024-044X,2025-07-25T15:47:19.002048,15.27566867,.0000633,43.0004,309.2114,279.4064,80.6716,0,U,59173,999,7887,-.42308E-4,-.1425E-4,0
STARLINK-31283,2024-044Y,2025-07-25T18:00:02.000160,15.27586709,.0001596,42.9990,261.7432,272.9227,335.9556,0,U,59174,999,578,-.1235E-3,-.366E-4,0
STARLINK-31439,2024-045A,2025-07-25T16:40:30.581760,15.27573062,.0001667,43.0016,291.1919,274.2869,85.7792,0,U,59178,999,1481,.40068E-6,-.251E-5,0
STARLINK-31410,2024-045B,2025-07-25T07:03:46.429632,15.27573846,.0001283,42.9999,296.8036,275.1155,84.9551,0,U,59179,999,7838,-.46656E-4,-.1545E-4,0
STARLINK-31395,2024-045C,2025-07-25T12:26:56.956992,15.27580013,.0001402,43.0009,295.9104,257.7465,102.3230,0,U,59180,999,7841,-.79385E-4,-.2446E-4,0
STARLINK-31486,2024-045D,2025-07-25T05:46:57.276480,15.27573507,.0001825,43.0020,293.8063,274.6823,85.3820,0,U,59181,999,7841,-.10499E-3,-.315E-4,0
STARLINK-31411,2024-045E,2025-07-24T08:28:33.388608,15.27580189,.0001359,42.9960,301.7724,188.3654,171.7175,0,U,59182,999,7824,.63458E-4,.1485E-4,0
STARLINK-31382,2024-045G,2025-07-25T06:19:21.632448,15.27573877,.0001534,42.9973,296.5682,275.1977,84.8700,0,U,59184,999,7838,-.19472E-4,-.798E-5,0
STARLINK-31394,2024-045H,2025-07-25T06:43:39.754272,15.27573097,.000223,43.0028,286.3287,287.0484,73.0124,0,U,59185,999,7850,-.10904E-4,-.563E-5,0
STARLINK-31403,2024-045J,2025-07-26T04:06:53.157312,15.27573440,.000123,43.0039,270.3650,271.7969,88.2742,0,U,59186,999,7866,.10406E-3,.2602E-4,0
STARLINK-31514,2024-045K,2025-07-24T15:25:54.384384,15.27572473,.0001411,43.0015,300.5191,300.4851,59.5862,0,U,59187,999,7828,-.58111E-4,-.186E-4,0
STARLINK-31478,2024-045L,2025-07-25T06:52:40.095552,15.27553828,.0001182,42.9992,296.7382,265.3141,94.7575,0,U,59188,999,7838,-.71525E-3,-.19876E-3,0
STARLINK-31498,2024-045M,2025-07-25T16:54:37.338048,15.27577006,.0000589,43.0003,294.7200,307.2070,52.8727,0,U,59189,999,7844,.29646E-4,.554E-5,0
STARLINK-31563,2024-045N,2025-07-25T06:36:01.464480,15.27573809,.0002114,43.0020,296.6563,287.4128,72.6492,0,U,59190,999,7838,-.1273E-3,-.3763E-4,0
STARLINK-31551,2024-045P,2025-07-25T06:56:20.428512,15.33009412,.0002971,43.0051,293.3333,300.1785,59.8774,0,U,59191,999,7842,.36778E-5,-.159E-5,0
STARLINK-31536,2024-045Q,2025-07-25T18:00:02.000160,15.27555966,.0001503,43.0009,294.1680,277.7545,92.7105,0,U,59192,999,589,.18302E-2,.50409E-3,0
STARLINK-31548,2024-045R,2025-07-25T15:29:41.991360,15.27576701,.000133,43.0007,295.1391,261.7027,98.3674,0,U,59193,999,7843,-.68585E-4,-.2149E-4,0
STARLINK-31542,2024-045S,2025-07-25T06:15:39.142944,15.27570062,.0001612,42.9987,296.5520,264.9448,95.1220,0,U,59194,999,7838,.33866E-3,.9066E-4,0
STARLINK-31554,2024-045T,2025-07-26T05:16:46.062912,15.27566006,.0000926,42.9942,291.7015,272.8446,87.2300,0,U,59195,999,7852,.48971E-4,.1085E-4,0
STARLINK-31558,2024-045U,2025-07-25T06:21:12.419712,15.27568780,.0000533,42.9974,296.5798,269.6324,90.4466,0,U,59196,999,7839,-.15913E-3,-.4636E-4,0
STARLINK-31275,2024-045V,2025-07-26T05:22:18.969024,15.27544144,.0002635,42.9985,291.7265,180.1888,179.8963,0,U,59197,999,7852,.14282E-3,.3665E-4,0
STARLINK-31590,2024-045W,2025-07-25T15:26:01.030272,15.27573771,.0001346,43.0029,295.1158,255.0878,104.9825,0,U,59198,999,7843,-.50521E-4,-.1652E-4,0
STARLINK-31567,2024-045X,2025-07-25T06:41:34.433664,15.27563133,.0001201,43.0015,296.6842,287.6883,72.3837,0,U,59199,999,7838,-.55505E-4,-.1788E-4,0
